[{"OBJECT_NAME":"EDISON-1","OBJECT_ID":"2025-009B","EPOCH":"2026-03-09T19:16:13.822464","MEAN_MOTION":15.29042904,"ECCENTRICITY":0.00043285,"INCLINATION":97.4042,"RA_OF_ASC_NODE":151.6286,"ARG_OF_PERICENTER":306.4185,"MEAN_ANOMALY":53.6655,"EPHEMERIS_TYPE":0,"CLASSIFICATION_TYPE":"U","NORAD_CAT_ID":62610,"ELEMENT_SET_NO":999,"REV_AT_EPOCH":6375,"BSTAR":0.00052814963,"MEAN_MOTION_DOT":0.00014835,"MEAN_MOTION_DDOT":0},{"OBJECT_NAME":"STARLINK-35733","OBJECT_ID":"2025-244U","EPOCH":"2026-03-09T16:20:11.037984","MEAN_MOTION":15.30198138,"ECCENTRICITY":0.00010882,"INCLINATION":53.1564,"RA_OF_ASC_NODE":230.2687,"ARG_OF_PERICENTER":70.6872,"MEAN_ANOMALY":289.4247,"EPHEMERIS_TYPE":0,"CLASSIFICATION_TYPE":"U","NORAD_CAT_ID":66224,"ELEMENT_SET_NO":999,"REV_AT_EPOCH":2165,"BSTAR":0.00033143877,"MEAN_MOTION_DOT":9.469e-5,"MEAN_MOTION_DDOT":0}]
